NORAD_CAT_ID,OBJECT_NAME,OBJECT_TYPE,EPOCH,MEAN_MOTION,ECCENTRICITY,INCLINATION,RA_OF_ASC_NODE,ARG_OF_PERICENTER,MEAN_ANOMALY,BSTAR,MEAN_MOTION_DOT,MEAN_MOTION_DDOT,TLE_LINE0,TLE_LINE1,TLE_LINE2,SEMIMAJOR_AXIS,PERIOD,APOGEE,PERIGEE,DECAYED
51123.0,STARLINK-3392,PAYLOAD,2023-04-30 23:20:35,15.08849591,9.17e-05,53.2164,294.5457,68.5679,291.5411,0.00020172,2.925e-05,0.0,0 STARLINK-3392,1 51123U 22005V   23120.97263261  .00002925  00000-0  20172-3 0  9998,2 51123  53.2164 294.5457 0000917  68.5679 291.5411 15.08849591 72393,6917.851,95.437,540.35,539.082,0.0
51123.0,STARLINK-3392,PAYLOAD,2023-05-01 12:03:41,15.08834779,0.0001123,53.216,292.165,72.6523,287.4592,-3.3531e-05,-8.21e-06,0.0,0 STARLINK-3392,1 51123U 22005V   23121.50256080 -.00000821  00000-0 -33531-4 0  9998,2 51123  53.2160 292.1650 0001123  72.6523 287.4592 15.08834779 72477,6917.896,95.438,540.538,538.984,0.0
51123.0,STARLINK-3392,PAYLOAD,2023-05-01 20:00:36,15.08838917,9.86e-05,53.2168,290.6788,77.7125,282.3977,3.265e-05,2.32e-06,0.0,0 STARLINK-3392,1 51123U 22005V   23121.83375940  .00000232  00000-0  32650-4 0  9996,2 51123  53.2168 290.6788 0000986  77.7125 282.3977 15.08838917 71445,6917.884,95.438,540.431,539.067,0.0
51123.0,STARLINK-3392,PAYLOAD,2023-05-02 11:54:28,15.08842176,9.33e-05,53.2158,287.7047,86.8746,273.2353,6.4063e-05,7.32e-06,0.0,0 STARLINK-3392,1 51123U 22005V   23122.49615856  .00000732  00000-0  64063-4 0  9990,2 51123  53.2158 287.7047 0000933  86.8746 273.2353 15.08842176 71541,6917.874,95.437,540.384,539.093,0.0
51123.0,STARLINK-3392,PAYLOAD,2023-05-02 18:16:00,15.08848914,9.29e-05,53.2165,286.5155,89.0301,271.0797,0.00017591,2.514e-05,0.0,0 STARLINK-3392,1 51123U 22005V   23122.76111528  .00002514  00000-0  17591-3 0  9990,2 51123  53.2165 286.5155 0000929  89.0301 271.0797 15.08848914 72661,6917.853,95.437,540.361,539.075,0.0
51123.0,STARLINK-3392,PAYLOAD,2023-05-02 19:51:23,15.08849019,9.61e-05,53.2162,286.2181,91.3339,268.7763,0.00025137,3.716e-05,0.0,0 STARLINK-3392,1 51123U 22005V   23122.82735568  .00003716  00000-0  25137-3 0  9993,2 51123  53.2162 286.2181 0000961  91.3339 268.7763 15.08849019 71591,6917.853,95.437,540.383,539.053,0.0
51123.0,STARLINK-3392,PAYLOAD,2023-05-03 03:48:19,15.08838808,0.0001109,53.2159,284.7281,88.8939,271.218,7.7318e-05,9.43e-06,0.0,0 STARLINK-3392,1 51123U 22005V   23123.15855902  .00000943  00000-0  77318-4 0  9993,2 51123  53.2159 284.7281 0001109  88.8939 271.2180 15.08838808 72725,6917.884,95.438,540.516,538.982,0.0
51123.0,STARLINK-3392,PAYLOAD,2023-05-03 11:45:15,15.08835573,8.48e-05,53.2158,283.2453,88.3776,271.7314,2.3015e-05,7.9e-07,0.0,0 STARLINK-3392,1 51123U 22005V   23123.48976192  .00000079  00000-0  23015-4 0  9999,2 51123  53.2158 283.2453 0000848  88.3776 271.7314 15.08835573 71697,6917.894,95.438,540.346,539.172,0.0
51123.0,STARLINK-3392,PAYLOAD,2023-05-03 19:42:10,15.08843243,8.09e-05,53.2152,281.7579,83.27,276.8384,0.00024946,3.685e-05,0.0,0 STARLINK-3392,1 51123U 22005V   23123.82096008  .00003685  00000-0  24946-3 0  9995,2 51123  53.2152 281.7579 0000809  83.2700 276.8384 15.08843243 71743,6917.87,95.437,540.295,539.176,0.0
51123.0,STARLINK-3392,PAYLOAD,2023-05-04 03:39:06,15.08836031,8.08e-05,53.2155,280.2706,75.4442,284.664,0.00013021,1.785e-05,0.0,0 STARLINK-3392,1 51123U 22005V   23124.15216331  .00001785  00000-0  13021-3 0  9996,2 51123  53.2155 280.2706 0000808  75.4442 284.6640 15.08836031 72871,6917.893,95.438,540.316,539.199,0.0
51123.0,STARLINK-3392,PAYLOAD,2023-05-04 10:00:39,15.08831922,8.28e-05,53.2152,279.0812,72.6443,287.464,6.4639e-05,7.41e-06,0.0,0 STARLINK-3392,1 51123U 22005V   23124.41712590  .00000741  00000-0  64639-4 0  9996,2 51123  53.2152 279.0812 0000828  72.6443 287.4640 15.08831922 71834,6917.905,95.438,540.343,539.197,0.0
51123.0,STARLINK-3392,PAYLOAD,2023-05-04 19:32:58,15.08843411,8.21e-05,53.2153,277.2967,71.3377,288.7704,0.00020902,3.041e-05,0.0,0 STARLINK-3392,1 51123U 22005V   23124.81456372  .00003041  00000-0  20902-3 0  9993,2 51123  53.2153 277.2967 0000821  71.3377 288.7704 15.08843411 71898,6917.87,95.437,540.303,539.167,0.0
51123.0,STARLINK-3392,PAYLOAD,2023-05-05 13:02:12,15.08844267,9.06e-05,53.2152,274.026,69.0048,291.1041,0.00029516,4.413e-05,0.0,0 STARLINK-3392,1 51123U 22005V   23125.54320569  .00004413  00000-0  29516-3 0  9996,2 51123  53.2152 274.0260 0000906  69.0048 291.1041 15.08844267 73086,6917.867,95.437,540.359,539.106,0.0
51123.0,STARLINK-3392,PAYLOAD,2023-05-05 17:48:22,15.08851787,8.69e-05,53.215,273.1339,65.848,294.2603,0.00040933,6.235e-05,0.0,0 STARLINK-3392,1 51123U 22005V   23125.74192282  .00006235  00000-0  40933-3 0  9997,2 51123  53.2150 273.1339 0000869  65.8480 294.2603 15.08851787 72030,6917.844,95.437,540.311,539.108,0.0
51123.0,STARLINK-3392,PAYLOAD,2023-05-06 16:03:45,15.08849226,9.03e-05,53.215,268.9703,81.082,279.0274,0.00025799,3.822e-05,0.0,0 STARLINK-3392,1 51123U 22005V   23126.66928236  .00003822  00000-0  25799-3 0  9997,2 51123  53.2150 268.9703 0000903  81.0820 279.0274 15.08849226 72179,6917.852,95.437,540.342,539.093,0.0
51123.0,STARLINK-3392,PAYLOAD,2023-05-06 19:14:31,15.08855122,9.05e-05,53.2153,268.3748,87.4598,272.6497,0.00027379,4.074e-05,0.0,0 STARLINK-3392,1 51123U 22005V   23126.80175842  .00004074  00000-0  27379-3 0  9996,2 51123  53.2153 268.3748 0000905  87.4598 272.6497 15.08855122 73279,6917.834,95.437,540.325,539.073,0.0
51123.0,STARLINK-3392,PAYLOAD,2023-05-07 12:43:47,15.08833259,8.27e-05,53.2149,265.1045,96.228,263.8807,-9.11e-05,-1.737e-05,0.0,0 STARLINK-3392,1 51123U 22005V   23127.53040804 -.00001737  00000-0 -91100-4 0  9995,2 51123  53.2149 265.1045 0000827  96.2280 263.8807 15.08833259 73384,6917.901,95.438,540.338,539.194,0.0
51123.0,STARLINK-3392,PAYLOAD,2023-05-07 14:19:10,15.08836317,8.61e-05,53.2151,264.8076,96.655,263.4541,-3.2469e-05,-8.04e-06,0.0,0 STARLINK-3392,1 51123U 22005V   23127.59664844 -.00000804  00000-0 -32469-4 0  9994,2 51123  53.2151 264.8076 0000861  96.6550 263.4541 15.08836317 72310,6917.892,95.438,540.352,539.161,0.0
51123.0,STARLINK-3392,PAYLOAD,2023-05-07 15:54:33,15.08836209,8.64e-05,53.2153,264.5098,98.8898,261.2192,-3.6304e-05,-8.65e-06,0.0,0 STARLINK-3392,1 51123U 22005V   23127.66288848 -.00000865  00000-0 -36304-4 0  9997,2 51123  53.2153 264.5098 0000864  98.8898 261.2192 15.08836209 72324,6917.892,95.438,540.355,539.159,0.0
51123.0,STARLINK-3392,PAYLOAD,2023-05-08 12:34:34,15.0884193,7.83e-05,53.215,260.6448,99.8613,260.2467,0.00016028,2.264e-05,0.0,0 STARLINK-3392,1 51123U 22005V   23128.52400718  .00002264  00000-0  16028-3 0  9998,2 51123  53.2150 260.6448 0000783  99.8613 260.2467 15.08841930 73538,6917.874,95.437,540.281,539.198,0.0
51123.0,STARLINK-3392,PAYLOAD,2023-05-08 15:45:20,15.08849712,7.42e-05,53.2145,260.0524,80.3981,279.7095,0.00035762,5.41e-05,0.0,0 STARLINK-3392,1 51123U 22005V   23128.65648551  .00005410  00000-0  35762-3 0  9993,2 51123  53.2145 260.0524 0000742  80.3981 279.7095 15.08849712 72479,6917.851,95.437,540.229,539.202,0.0
51123.0,STARLINK-3392,PAYLOAD,2023-05-09 14:00:44,15.08843736,6.65e-05,53.2162,255.886,77.8619,282.2447,0.00019389,2.8e-05,0.0,0 STARLINK-3392,1 51123U 22005V   23129.58384803  .00002800  00000-0  19389-3 0  9990,2 51123  53.2162 255.8860 0000665  77.8619 282.2447 15.08843736 72612,6917.869,95.437,540.194,539.274,0.0
51123.0,STARLINK-3392,PAYLOAD,2023-05-10 12:16:08,15.0884433,0.0001347,53.2172,251.7323,106.6737,253.4403,5.6787e-05,6.16e-06,0.0,0 STARLINK-3392,1 51123U 22005V   23130.51121099  .00000616  00000-0  56787-4 0  9998,2 51123  53.2172 251.7323 0001347 106.6737 253.4403 15.08844330 72750,6917.867,95.437,540.664,538.8,0.0
51123.0,STARLINK-3392,PAYLOAD,2023-05-10 15:26:54,15.08845219,9.67e-05,53.2158,251.1307,80.9279,279.1822,7.5338e-05,9.12e-06,0.0,0 STARLINK-3392,1 51123U 22005V   23130.64368928  .00000912  00000-0  75338-4 0  9998,2 51123  53.2158 251.1307 0000967  80.9279 279.1822 15.08845219 73851,6917.864,95.437,540.398,539.06,0.0
51123.0,STARLINK-3392,PAYLOAD,2023-05-11 00:59:13,15.08842062,7.48e-05,53.2159,249.345,74.0419,286.0656,0.00011645,1.566e-05,0.0,0 STARLINK-3392,1 51123U 22005V   23131.04112714  .00001566  00000-0  11645-3 0  9999,2 51123  53.2159 249.3450 0000748  74.0419 286.0656 15.08842062 72839,6917.874,95.437,540.257,539.222,0.0
51123.0,STARLINK-3392,PAYLOAD,2023-05-11 13:42:18,15.08839315,8.39e-05,53.2149,246.9678,78.1596,281.9491,5.1984e-05,5.4e-06,0.0,0 STARLINK-3392,1 51123U 22005V   23131.57105132  .00000540  00000-0  51984-4 0  9995,2 51123  53.2149 246.9678 0000839  78.1596 281.9491 15.08839315 73991,6917.882,95.438,540.328,539.167,0.0
51123.0,STARLINK-3392,PAYLOAD,2023-05-12 00:50:00,15.08844364,0.0001031,53.2155,244.8876,72.1381,287.9723,0.00020307,2.946e-05,0.0,0 STARLINK-3392,1 51123U 22005V   23132.03473054  .00002946  00000-0  20307-3 0  9994,2 51123  53.2155 244.8876 0001031  72.1381 287.9723 15.08844364 72988,6917.867,95.437,540.445,539.019,0.0
51123.0,STARLINK-3392,PAYLOAD,2023-05-12 10:22:19,15.08841582,0.0001062,53.2146,243.1032,74.0535,286.0574,0.00018203,2.611e-05,0.0,0 STARLINK-3392,1 51123U 22005V   23132.43217234  .00002611  00000-0  18203-3 0  9995,2 51123  53.2146 243.1032 0001062  74.0535 286.0574 15.08841582 73041,6917.876,95.437,540.475,539.006,0.0
51123.0,STARLINK-3392,PAYLOAD,2023-05-13 13:23:53,15.08841024,9.39e-05,53.2161,238.0448,82.9381,277.1718,7.537e-05,9.12e-06,0.0,0 STARLINK-3392,1 51123U 22005V   23133.55825288  .00000912  00000-0  75370-4 0  9994,2 51123  53.2161 238.0448 0000939  82.9381 277.1718 15.08841024 74291,6917.877,95.437,540.392,539.093,0.0
51123.0,STARLINK-3392,PAYLOAD,2023-05-13 18:10:02,15.08845866,9.44e-05,53.2164,237.1526,81.8527,278.2572,0.00013147,1.806e-05,0.0,0 STARLINK-3392,1 51123U 22005V   23133.75697008  .00001806  00000-0  13147-3 0  9999,2 51123  53.2164 237.1526 0000944  81.8527 278.2572 15.08845866 73249,6917.862,95.437,540.381,539.074,0.0
